[{"OBJECT_NAME":"JILIN-1 GAOFEN 2F","OBJECT_ID":"2021-097A","EPOCH":"2026-03-09T22:15:16.366464","MEAN_MOTION":15.06938169,"ECCENTRICITY":0.00186372,"INCLINATION":97.6538,"RA_OF_ASC_NODE":195.5232,"ARG_OF_PERICENTER":201.1609,"MEAN_ANOMALY":158.885,"EPHEMERIS_TYPE":0,"CLASSIFICATION_TYPE":"U","NORAD_CAT_ID":49338,"ELEMENT_SET_NO":999,"REV_AT_EPOCH":24136,"BSTAR":0.0003789548,"MEAN_MOTION_DOT":5.624e-5,"MEAN_MOTION_DDOT":0},{"OBJECT_NAME":"STARLINK-6181","OBJECT_ID":"2023-083N","EPOCH":"2026-03-09T10:26:03.416064","MEAN_MOTION":15.02525708,"ECCENTRICITY":0.00014983,"INCLINATION":43.0047,"RA_OF_ASC_NODE":83.0246,"ARG_OF_PERICENTER":277.4527,"MEAN_ANOMALY":82.6145,"EPHEMERIS_TYPE":0,"CLASSIFICATION_TYPE":"U","NORAD_CAT_ID":56888,"ELEMENT_SET_NO":999,"REV_AT_EPOCH":15163,"BSTAR":-9.7296208e-5,"MEAN_MOTION_DOT":-1.517e-5,"MEAN_MOTION_DDOT":0}]
